NORAD_CAT_ID,OBJECT_NAME,OBJECT_TYPE,EPOCH,MEAN_MOTION,ECCENTRICITY,INCLINATION,RA_OF_ASC_NODE,ARG_OF_PERICENTER,MEAN_ANOMALY,BSTAR,MEAN_MOTION_DOT,MEAN_MOTION_DDOT,TLE_LINE0,TLE_LINE1,TLE_LINE2,SEMIMAJOR_AXIS,PERIOD,APOGEE,PERIGEE,DECAYED
53144.0,STARLINK-4100,PAYLOAD,2024-03-13 07:55:29,15.08839336,0.0001579,53.2135,194.8813,87.4162,272.7011,6.7016e-05,7.79e-06,0.0,0 STARLINK-4100,1 53144U 22083N   24073.33020331  .00000779  00000-0  67016-4 0  9990,2 53144  53.2135 194.8813 0001579  87.4162 272.7011 15.08839336 91569,6917.882,95.438,540.84,538.655,0.0
53144.0,STARLINK-4100,PAYLOAD,2024-03-14 12:32:25,15.0885176,0.0001135,53.2149,189.5295,88.9027,271.2095,0.00027753,4.133e-05,0.0,0 STARLINK-4100,1 53144U 22083N   24074.52251819  .00004133  00000-0  27753-3 0  9990,2 53144  53.2149 189.5295 0001135  88.9027 271.2095 15.08851760 92374,6917.844,95.437,540.495,538.924,0.0
53144.0,STARLINK-4100,PAYLOAD,2024-03-15 12:23:12,15.08841826,0.0001467,53.216,185.0693,97.3384,262.7775,9.3627e-05,1.202e-05,0.0,0 STARLINK-4100,1 53144U 22083N   24075.51612256  .00001202  00000-0  93627-4 0  9994,2 53144  53.2160 185.0693 0001467  97.3384 262.7775 15.08841826 92527,6917.875,95.437,540.755,538.725,0.0
53144.0,STARLINK-4100,PAYLOAD,2024-03-16 12:14:00,15.08832842,0.0001519,53.2166,180.6146,92.0943,268.0223,1.1728e-05,-1.01e-06,0.0,0 STARLINK-4100,1 53144U 22083N   24076.50972963 -.00000101  00000-0  11728-4 0  9998,2 53144  53.2166 180.6146 0001519  92.0943 268.0223 15.08832842 92679,6917.902,95.438,540.818,538.716,0.0
53144.0,STARLINK-4100,PAYLOAD,2024-03-16 13:49:23,15.08834378,0.0001591,53.2179,180.3169,102.0041,258.1129,3.8116e-05,3.19e-06,0.0,0 STARLINK-4100,1 53144U 22083N   24076.57596993  .00000319  00000-0  38116-4 0  9990,2 53144  53.2179 180.3169 0001591 102.0041 258.1129 15.08834378 92059,6917.898,95.438,540.863,538.662,0.0
53144.0,STARLINK-4100,PAYLOAD,2024-03-16 18:35:32,15.08840526,0.0001431,53.2174,179.4241,92.4582,267.6574,7.7041e-05,9.38e-06,0.0,0 STARLINK-4100,1 53144U 22083N   24076.77468538  .00000938  00000-0  77041-4 0  9992,2 53144  53.2174 179.4241 0001431  92.4582 267.6574 15.08840526 92083,6917.879,95.438,540.734,538.754,0.0
53144.0,STARLINK-4100,PAYLOAD,2024-03-17 12:04:47,15.08836079,0.0001541,53.2168,176.1469,65.8548,294.2605,0.00014122,1.96e-05,0.0,0 STARLINK-4100,1 53144U 22083N   24077.50332891  .00001960  00000-0  14122-3 0  9992,2 53144  53.2168 176.1469 0001541  65.8548 294.2605 15.08836079 92191,6917.892,95.438,540.823,538.691,0.0
53144.0,STARLINK-4100,PAYLOAD,2024-03-17 16:50:56,15.08841026,0.0001575,53.2173,175.2531,88.0879,272.0293,0.0001901,2.739e-05,0.0,0 STARLINK-4100,1 53144U 22083N   24077.70204421  .00002739  00000-0  19010-3 0  9997,2 53144  53.2173 175.2531 0001575  88.0879 272.0293 15.08841026 92227,6917.877,95.437,540.832,538.653,0.0
53144.0,STARLINK-4100,PAYLOAD,2024-03-18 11:55:35,15.08832571,0.0001712,53.2174,171.6909,110.0057,250.112,7.2995e-05,8.74e-06,0.0,0 STARLINK-4100,1 53144U 22083N   24078.49693655  .00000874  00000-0  72995-4 0  9995,2 53144  53.2174 171.6909 0001712 110.0057 250.1120 15.08832571 92977,6917.903,95.438,540.952,538.584,0.0
53144.0,STARLINK-4100,PAYLOAD,2024-03-18 15:06:21,15.08835082,0.0001674,53.2178,171.0918,97.5325,262.5858,5.6522e-05,6.12e-06,0.0,0 STARLINK-4100,1 53144U 22083N   24078.62941602  .00000612  00000-0  56522-4 0  9996,2 53144  53.2178 171.0918 0001674  97.5325 262.5858 15.08835082 92367,6917.895,95.438,540.918,538.602,0.0
53144.0,STARLINK-4100,PAYLOAD,2024-03-19 11:46:22,15.08851093,0.000187,53.2173,167.2277,123.904,236.213,0.00011847,1.598e-05,0.0,0 STARLINK-4100,1 53144U 22083N   24079.49053528  .00001598  00000-0  11847-3 0  9997,2 53144  53.2173 167.2277 0001870 123.9040 236.2130 15.08851093 92498,6917.846,95.437,541.005,538.418,0.0
53144.0,STARLINK-4100,PAYLOAD,2024-03-19 13:21:45,15.08850682,0.0001552,53.2172,166.9307,94.8347,265.2822,0.00011901,1.607e-05,0.0,0 STARLINK-4100,1 53144U 22083N   24079.55677740  .00001607  00000-0  11901-3 0  9994,2 53144  53.2172 166.9307 0001552  94.8347 265.2822 15.08850682 93135,6917.848,95.437,540.786,538.639,0.0
53144.0,STARLINK-4100,PAYLOAD,2024-03-20 10:01:43,15.08871064,0.0001511,53.2172,163.066,90.2344,269.8821,0.00036648,5.554e-05,0.0,0 STARLINK-4100,1 53144U 22083N   24080.41786819  .00005554  00000-0  36648-3 0  9999,2 53144  53.2172 163.0660 0001511  90.2344 269.8821 15.08871064 93267,6917.785,95.436,540.696,538.605,0.0
53144.0,STARLINK-4100,PAYLOAD,2024-03-20 13:12:30,15.0888651,0.0001808,53.2179,162.47,85.7393,274.3806,0.00081129,0.00012664,0.0,0 STARLINK-4100,1 53144U 22083N   24080.55035097  .00012664  00000-0  81129-3 0  9993,2 53144  53.2179 162.4700 0001808  85.7393 274.3806 15.08886510 92652,6917.738,95.435,540.854,538.353,0.0
53144.0,STARLINK-4100,PAYLOAD,2024-03-20 22:44:49,15.08858951,0.0001558,53.2176,160.6851,102.7498,257.3669,0.00017365,2.478e-05,0.0,0 STARLINK-4100,1 53144U 22083N   24080.94779303  .00002478  00000-0  17365-3 0  9994,2 53144  53.2176 160.6851 0001558 102.7498 257.3669 15.08858951 92717,6917.822,95.436,540.765,538.61,0.0
53144.0,STARLINK-4100,PAYLOAD,2024-03-21 11:27:56,15.08834358,0.0001269,53.2165,158.3067,106.716,253.3971,-0.00039734,-6.605e-05,0.0,0 STARLINK-4100,1 53144U 22083N   24081.47773153 -.00006605  00000-0 -39734-3 0  9992,2 53144  53.2165 158.3067 0001269 106.7160 253.3971 15.08834358 93423,6917.898,95.438,540.641,538.885,0.0
53144.0,STARLINK-4100,PAYLOAD,2024-03-22 11:18:41,15.08865215,0.0001544,53.2167,153.8468,99.8393,260.2774,-9.6645e-05,-1.827e-05,0.0,0 STARLINK-4100,1 53144U 22083N   24082.47131101 -.00001827  00000-0 -96645-4 0  9990,2 53144  53.2167 153.8468 0001544  99.8393 260.2774 15.08865215 93576,6917.803,95.436,540.736,538.6,0.0
53144.0,STARLINK-4100,PAYLOAD,2024-03-23 04:47:57,15.08823131,0.0001697,53.2166,150.5724,114.8026,245.3143,0.00015866,2.237e-05,0.0,0 STARLINK-4100,1 53144U 22083N   24083.19997659  .00002237  00000-0  15866-3 0  9997,2 53144  53.2166 150.5724 0001697 114.8026 245.3143 15.08823131 93681,6917.932,95.439,540.971,538.623,0.0
53144.0,STARLINK-4100,PAYLOAD,2024-03-23 11:09:30,15.08826194,0.0001522,53.2168,149.3842,97.9503,262.1662,8.3862e-05,1.046e-05,0.0,0 STARLINK-4100,1 53144U 22083N   24083.46493782  .00001046  00000-0  83862-4 0  9994,2 53144  53.2168 149.3842 0001522  97.9503 262.1662 15.08826194 93098,6917.923,95.438,540.84,538.735,0.0
53144.0,STARLINK-4100,PAYLOAD,2024-03-24 04:38:44,15.0884743,0.0001192,53.2149,146.1136,71.7172,288.395,0.00038929,5.914e-05,0.0,0 STARLINK-4100,1 53144U 22083N   24084.19357016  .00005914  00000-0  38929-3 0  9995,2 53144  53.2149 146.1136 0001192  71.7172 288.3950 15.08847430 93831,6917.858,95.437,540.547,538.898,0.0
53144.0,STARLINK-4100,PAYLOAD,2024-03-24 11:00:16,15.08872234,0.0001589,53.2162,144.9287,84.6251,275.4922,0.00095861,0.00015015,0.0,0 STARLINK-4100,1 53144U 22083N   24084.45852318  .00015015  00000-0  95861-3 0  9990,2 53144  53.2162 144.9287 0001589  84.6251 275.4922 15.08872234 93870,6917.782,95.436,540.746,538.548,0.0
53144.0,STARLINK-4100,PAYLOAD,2024-03-24 20:32:35,15.08859989,0.000192,53.216,143.1398,82.4365,277.6846,0.00073647,0.00011459,0.0,0 STARLINK-4100,1 53144U 22083N   24084.85596827  .00011459  00000-0  73647-3 0  9990,2 53144  53.2160 143.1398 0001920  82.4365 277.6846 15.08859989 93931,6917.819,95.436,541.013,538.356,0.0
53144.0,STARLINK-4100,PAYLOAD,2024-03-25 12:26:26,15.0885113,0.0001295,53.2147,140.1665,72.1167,287.9966,0.00028479,4.249e-05,0.0,0 STARLINK-4100,1 53144U 22083N   24085.51836714  .00004249  00000-0  28479-3 0  9998,2 53144  53.2147 140.1665 0001295  72.1167 287.9966 15.08851130 94030,6917.846,95.437,540.607,538.816,0.0
53144.0,STARLINK-4100,PAYLOAD,2024-03-25 20:23:23,15.08827548,0.0001652,53.215,138.6801,73.4591,286.6583,0.00025544,3.778e-05,0.0,0 STARLINK-4100,1 53144U 22083N   24085.84957559  .00003778  00000-0  25544-3 0  9991,2 53144  53.2150 138.6801 0001652  73.4591 286.6583 15.08827548 94082,6917.918,95.438,540.926,538.641,0.0
53144.0,STARLINK-4100,PAYLOAD,2024-03-26 12:17:16,15.08804992,0.0001668,53.215,135.708,79.5815,280.5365,0.00010724,1.418e-05,0.0,0 STARLINK-4100,1 53144U 22083N   24086.51199611  .00001418  00000-0  10724-3 0  9996,2 53144  53.2150 135.7080 0001668  79.5815 280.5365 15.08804992 94182,6917.987,95.44,541.006,538.698,0.0
53144.0,STARLINK-4100,PAYLOAD,2024-03-26 20:14:12,15.08825664,0.0001186,53.2141,134.2195,75.8776,284.2348,0.0010075,0.00015776,0.0,0 STARLINK-4100,1 53144U 22083N   24086.84319730  .00015776  00000-0  10075-2 0  9998,2 53144  53.2141 134.2195 0001186  75.8776 284.2348 15.08825664 94230,6917.924,95.438,540.61,538.969,0.0
53144.0,STARLINK-4100,PAYLOAD,2024-03-27 10:32:39,15.08880678,0.0001289,53.2133,131.5445,77.3036,282.81,0.0023244,0.0003694,0.0,0 STARLINK-4100,1 53144U 22083N   24087.43935045  .00036940  00000-0  23244-2 0  9995,2 53144  53.2133 131.5445 0001289  77.3036 282.8100 15.08880678 94325,6917.756,95.435,540.513,538.729,0.0
53144.0,STARLINK-4100,PAYLOAD,2024-03-27 20:04:58,15.08867563,0.0001427,53.2128,129.7596,82.8043,277.3112,0.0008586,0.00013413,0.0,0 STARLINK-4100,1 53144U 22083N   24087.83678610  .00013413  00000-0  85860-3 0  9994,2 53144  53.2128 129.7596 0001427  82.8043 277.3112 15.08867563 94384,6917.796,95.436,540.648,538.674,0.0
53144.0,STARLINK-4100,PAYLOAD,2024-03-28 10:23:26,15.08866454,0.0001442,53.2138,127.0835,83.543,276.5727,0.0018271,0.00028931,0.0,0 STARLINK-4100,1 53144U 22083N   24088.43294172  .00028931  00000-0  18271-2 0  9990,2 53144  53.2138 127.0835 0001442  83.5430 276.5727 15.08866454 94478,6917.8,95.436,540.662,538.667,0.0
53144.0,STARLINK-4100,PAYLOAD,2024-03-28 19:55:44,15.08865547,0.0001663,53.2147,125.2982,86.1574,273.9608,0.0011827,0.00018598,0.0,0 STARLINK-4100,1 53144U 22083N   24088.83037991  .00018598  00000-0  11827-2 0  9996,2 53144  53.2147 125.2982 0001663  86.1574 273.9608 15.08865547 94532,6917.802,95.436,540.818,538.517,0.0
